ONEWEB-0647             
1 56079U 23043AK  26177.70835885 -.00000088  00000+0 -26738-3 0  9992
2 56079  87.9000 257.3304 0001852  99.8386 260.2953 13.15549063157676
ONEWEB-0651             
1 56080U 23043AL  26177.70360066 -.00000035  00000+0 -12765-3 0  9995
2 56080  87.8998 257.3246 0002016  92.5630 267.5732 13.15549322158879
ONEWEB-0718             
1 56081U 23043AM  26177.69884855 -.00000145  00000+0 -41842-3 0  9991
2 56081  87.8997 257.3061 0002493 103.8920 256.2487 13.15546709157687
ONEWEB-0561             
1 56710U 23068A   26177.66726536  .00000046  00000+0  80247-4 0  9996
2 56710  87.9200 272.5546 0001650  95.5798 264.5524 13.20773903150754
ONEWEB-0668             
1 56711U 23068B   26177.39656311  .00000046  00000+0  85926-4 0  9999
2 56711  87.9091 226.9436 0002585  92.6223 267.5204 13.16594873152991
ONEWEB-0676             
1 56712U 23068C   26177.55647168  .00000063  00000+0  13162-3 0  9999
2 56712  87.9090 226.9180 0001889  88.2418 271.8930 13.16593313152936
ONEWEB-0677             
1 56713U 23068D   26177.73124841 -.00000013  00000+0 -62716-4 0  9995
2 56713  87.9195 272.5330 0002137  89.4491 270.6887 13.20770618151069
ONEWEB-0678             
1 56714U 23068E   26177.51504110  .00000155  00000+0  37686-3 0  9995
2 56714  87.9007 257.3358 0001762 105.0576 255.0749 13.15549081150510
ONEWEB-0679             
1 56715U 23068F   26177.59129500  .00000102  00000+0  23372-3 0  9999
2 56715  87.9089 226.9025 0002415  84.5433 275.5973 13.16592605152961
ONEWEB-0680             
1 56716U 23068G   26177.40653929  .00000007  00000+0 -13390-4 0  9992
2 56716  87.9257 242.1377 0002578  91.3278 268.8151 13.21825111152311
ONEWEB-0681             
1 56717U 23068H   26177.68997304  .00000012  00000+0 -31367-5 0  9992
2 56717  87.9250 242.0819 0001558  71.3929 288.7374 13.21827025152340
ONEWEB-0682             
1 56718U 23068J   26177.69092899 -.00000009  00000+0 -57285-4 0  9992
2 56718  87.9005 257.3013 0002496  92.9012 267.2404 13.15548834150703
ONEWEB-0683             
1 56719U 23068K   26177.71469264 -.00000090  00000+0 -27434-3 0  9992
2 56719  87.9008 257.2966 0002291  99.1357 261.0033 13.15549438150674
ONEWEB-0684             
1 56720U 23068L   26177.72262075 -.00000084  00000+0 -25805-3 0  9999
2 56720  87.9007 257.2846 0002122 137.6286 222.5008 13.15548466150500
ONEWEB-0686             
1 56721U 23068M   26177.70371450 -.00000047  00000+0 -15687-3 0  9992
2 56721  87.9081 226.9025 0002378 101.6466 258.4932 13.16595209152963
ONEWEB-0694             
1 56722U 23068N   26177.55805087 -.00000006  00000+0 -48235-4 0  9995
2 56722  87.9100 226.8980 0002528  92.3653 267.7767 13.16595090153009
ONEWEB-0696             
1 56723U 23068P   26177.67983595  .00000068  00000+0  14753-3 0  9993
2 56723  87.9001 257.3311 0001630 108.7786 251.3521 13.15547171150616
