[{"OBJECT_NAME":"ONEWEB-0647","OBJECT_ID":"2023-043AK","EPOCH":"2026-06-26T17:00:02.204640","MEAN_MOTION":13.15549063,"ECCENTRICITY":0.0001852,"INCLINATION":87.9,"RA_OF_ASC_NODE":257.3304,"ARG_OF_PERICENTER":99.8386,"MEAN_ANOMALY":260.2953,"EPHEMERIS_TYPE":0,"CLASSIFICATION_TYPE":"U","NORAD_CAT_ID":56079,"ELEMENT_SET_NO":999,"REV_AT_EPOCH":15767,"BSTAR":-0.00026738,"MEAN_MOTION_DOT":-8.8e-7,"MEAN_MOTION_DDOT":0},{"OBJECT_NAME":"ONEWEB-0651","OBJECT_ID":"2023-043AL","EPOCH":"2026-06-26T16:53:11.097024","MEAN_MOTION":13.15549322,"ECCENTRICITY":0.0002016,"INCLINATION":87.8998,"RA_OF_ASC_NODE":257.3246,"ARG_OF_PERICENTER":92.563,"MEAN_ANOMALY":267.5732,"EPHEMERIS_TYPE":0,"CLASSIFICATION_TYPE":"U","NORAD_CAT_ID":56080,"ELEMENT_SET_NO":999,"REV_AT_EPOCH":15887,"BSTAR":-0.00012765,"MEAN_MOTION_DOT":-3.5e-7,"MEAN_MOTION_DDOT":0},{"OBJECT_NAME":"ONEWEB-0718","OBJECT_ID":"2023-043AM","EPOCH":"2026-06-26T16:46:20.514720","MEAN_MOTION":13.15546709,"ECCENTRICITY":0.0002493,"INCLINATION":87.8997,"RA_OF_ASC_NODE":257.3061,"ARG_OF_PERICENTER":103.892,"MEAN_ANOMALY":256.2487,"EPHEMERIS_TYPE":0,"CLASSIFICATION_TYPE":"U","NORAD_CAT_ID":56081,"ELEMENT_SET_NO":999,"REV_AT_EPOCH":15768,"BSTAR":-0.00041842,"MEAN_MOTION_DOT":-1.45e-6,"MEAN_MOTION_DDOT":0},{"OBJECT_NAME":"ONEWEB-0561","OBJECT_ID":"2023-068A","EPOCH":"2026-06-26T16:00:51.727104","MEAN_MOTION":13.20773903,"ECCENTRICITY":0.000165,"INCLINATION":87.92,"RA_OF_ASC_NODE":272.5546,"ARG_OF_PERICENTER":95.5798,"MEAN_ANOMALY":264.5524,"EPHEMERIS_TYPE":0,"CLASSIFICATION_TYPE":"U","NORAD_CAT_ID":56710,"ELEMENT_SET_NO":999,"REV_AT_EPOCH":15075,"BSTAR":8.0247e-5,"MEAN_MOTION_DOT":4.6e-7,"MEAN_MOTION_DDOT":0},{"OBJECT_NAME":"ONEWEB-0668","OBJECT_ID":"2023-068B","EPOCH":"2026-06-26T09:31:03.052704","MEAN_MOTION":13.16594873,"ECCENTRICITY":0.0002585,"INCLINATION":87.9091,"RA_OF_ASC_NODE":226.9436,"ARG_OF_PERICENTER":92.6223,"MEAN_ANOMALY":267.5204,"EPHEMERIS_TYPE":0,"CLASSIFICATION_TYPE":"U","NORAD_CAT_ID":56711,"ELEMENT_SET_NO":999,"REV_AT_EPOCH":15299,"BSTAR":8.5926e-5,"MEAN_MOTION_DOT":4.6e-7,"MEAN_MOTION_DDOT":0},{"OBJECT_NAME":"ONEWEB-0676","OBJECT_ID":"2023-068C","EPOCH":"2026-06-26T13:21:19.153152","MEAN_MOTION":13.16593313,"ECCENTRICITY":0.0001889,"INCLINATION":87.909,"RA_OF_ASC_NODE":226.918,"ARG_OF_PERICENTER":88.2418,"MEAN_ANOMALY":271.893,"EPHEMERIS_TYPE":0,"CLASSIFICATION_TYPE":"U","NORAD_CAT_ID":56712,"ELEMENT_SET_NO":999,"REV_AT_EPOCH":15293,"BSTAR":0.00013162,"MEAN_MOTION_DOT":6.3e-7,"MEAN_MOTION_DDOT":0},{"OBJECT_NAME":"ONEWEB-0677","OBJECT_ID":"2023-068D","EPOCH":"2026-06-26T17:32:59.862624","MEAN_MOTION":13.20770618,"ECCENTRICITY":0.0002137,"INCLINATION":87.9195,"RA_OF_ASC_NODE":272.533,"ARG_OF_PERICENTER":89.4491,"MEAN_ANOMALY":270.6887,"EPHEMERIS_TYPE":0,"CLASSIFICATION_TYPE":"U","NORAD_CAT_ID":56713,"ELEMENT_SET_NO":999,"REV_AT_EPOCH":15106,"BSTAR":-6.2716e-5,"MEAN_MOTION_DOT":-1.3e-7,"MEAN_MOTION_DDOT":0},{"OBJECT_NAME":"ONEWEB-0678","OBJECT_ID":"2023-068E","EPOCH":"2026-06-26T12:21:39.551040","MEAN_MOTION":13.15549081,"ECCENTRICITY":0.0001762,"INCLINATION":87.9007,"RA_OF_ASC_NODE":257.3358,"ARG_OF_PERICENTER":105.0576,"MEAN_ANOMALY":255.0749,"EPHEMERIS_TYPE":0,"CLASSIFICATION_TYPE":"U","NORAD_CAT_ID":56714,"ELEMENT_SET_NO":999,"REV_AT_EPOCH":15051,"BSTAR":0.00037686,"MEAN_MOTION_DOT":1.55e-6,"MEAN_MOTION_DDOT":0},{"OBJECT_NAME":"ONEWEB-0679","OBJECT_ID":"2023-068F","EPOCH":"2026-06-26T14:11:27.888000","MEAN_MOTION":13.16592605,"ECCENTRICITY":0.0002415,"INCLINATION":87.9089,"RA_OF_ASC_NODE":226.9025,"ARG_OF_PERICENTER":84.5433,"MEAN_ANOMALY":275.5973,"EPHEMERIS_TYPE":0,"CLASSIFICATION_TYPE":"U","NORAD_CAT_ID":56715,"ELEMENT_SET_NO":999,"REV_AT_EPOCH":15296,"BSTAR":0.00023372,"MEAN_MOTION_DOT":1.02e-6,"MEAN_MOTION_DDOT":0},{"OBJECT_NAME":"ONEWEB-0680","OBJECT_ID":"2023-068G","EPOCH":"2026-06-26T09:45:24.994656","MEAN_MOTION":13.21825111,"ECCENTRICITY":0.0002578,"INCLINATION":87.9257,"RA_OF_ASC_NODE":242.1377,"ARG_OF_PERICENTER":91.3278,"MEAN_ANOMALY":268.8151,"EPHEMERIS_TYPE":0,"CLASSIFICATION_TYPE":"U","NORAD_CAT_ID":56716,"ELEMENT_SET_NO":999,"REV_AT_EPOCH":15231,"BSTAR":-1.339e-5,"MEAN_MOTION_DOT":7.0e-8,"MEAN_MOTION_DDOT":0},{"OBJECT_NAME":"ONEWEB-0681","OBJECT_ID":"2023-068H","EPOCH":"2026-06-26T16:33:33.670656","MEAN_MOTION":13.21827025,"ECCENTRICITY":0.0001558,"INCLINATION":87.925,"RA_OF_ASC_NODE":242.0819,"ARG_OF_PERICENTER":71.3929,"MEAN_ANOMALY":288.7374,"EPHEMERIS_TYPE":0,"CLASSIFICATION_TYPE":"U","NORAD_CAT_ID":56717,"ELEMENT_SET_NO":999,"REV_AT_EPOCH":15234,"BSTAR":-3.1367e-6,"MEAN_MOTION_DOT":1.2e-7,"MEAN_MOTION_DDOT":0},{"OBJECT_NAME":"ONEWEB-0682","OBJECT_ID":"2023-068J","EPOCH":"2026-06-26T16:34:56.264736","MEAN_MOTION":13.15548834,"ECCENTRICITY":0.0002496,"INCLINATION":87.9005,"RA_OF_ASC_NODE":257.3013,"ARG_OF_PERICENTER":92.9012,"MEAN_ANOMALY":267.2404,"EPHEMERIS_TYPE":0,"CLASSIFICATION_TYPE":"U","NORAD_CAT_ID":56718,"ELEMENT_SET_NO":999,"REV_AT_EPOCH":15070,"BSTAR":-5.7285e-5,"MEAN_MOTION_DOT":-9.0e-8,"MEAN_MOTION_DDOT":0},{"OBJECT_NAME":"ONEWEB-0683","OBJECT_ID":"2023-068K","EPOCH":"2026-06-26T17:09:09.444096","MEAN_MOTION":13.15549438,"ECCENTRICITY":0.0002291,"INCLINATION":87.9008,"RA_OF_ASC_NODE":257.2966,"ARG_OF_PERICENTER":99.1357,"MEAN_ANOMALY":261.0033,"EPHEMERIS_TYPE":0,"CLASSIFICATION_TYPE":"U","NORAD_CAT_ID":56719,"ELEMENT_SET_NO":999,"REV_AT_EPOCH":15067,"BSTAR":-0.00027434,"MEAN_MOTION_DOT":-9.0e-7,"MEAN_MOTION_DDOT":0},{"OBJECT_NAME":"ONEWEB-0684","OBJECT_ID":"2023-068L","EPOCH":"2026-06-26T17:20:34.432800","MEAN_MOTION":13.15548466,"ECCENTRICITY":0.0002122,"INCLINATION":87.9007,"RA_OF_ASC_NODE":257.2846,"ARG_OF_PERICENTER":137.6286,"MEAN_ANOMALY":222.5008,"EPHEMERIS_TYPE":0,"CLASSIFICATION_TYPE":"U","NORAD_CAT_ID":56720,"ELEMENT_SET_NO":999,"REV_AT_EPOCH":15050,"BSTAR":-0.00025805,"MEAN_MOTION_DOT":-8.4e-7,"MEAN_MOTION_DDOT":0},{"OBJECT_NAME":"ONEWEB-0686","OBJECT_ID":"2023-068M","EPOCH":"2026-06-26T16:53:20.932800","MEAN_MOTION":13.16595209,"ECCENTRICITY":0.0002378,"INCLINATION":87.9081,"RA_OF_ASC_NODE":226.9025,"ARG_OF_PERICENTER":101.6466,"MEAN_ANOMALY":258.4932,"EPHEMERIS_TYPE":0,"CLASSIFICATION_TYPE":"U","NORAD_CAT_ID":56721,"ELEMENT_SET_NO":999,"REV_AT_EPOCH":15296,"BSTAR":-0.00015687,"MEAN_MOTION_DOT":-4.7e-7,"MEAN_MOTION_DDOT":0},{"OBJECT_NAME":"ONEWEB-0694","OBJECT_ID":"2023-068N","EPOCH":"2026-06-26T13:23:35.595168","MEAN_MOTION":13.1659509,"ECCENTRICITY":0.0002528,"INCLINATION":87.91,"RA_OF_ASC_NODE":226.898,"ARG_OF_PERICENTER":92.3653,"MEAN_ANOMALY":267.7767,"EPHEMERIS_TYPE":0,"CLASSIFICATION_TYPE":"U","NORAD_CAT_ID":56722,"ELEMENT_SET_NO":999,"REV_AT_EPOCH":15300,"BSTAR":-4.8235e-5,"MEAN_MOTION_DOT":-6.0e-8,"MEAN_MOTION_DDOT":0},{"OBJECT_NAME":"ONEWEB-0696","OBJECT_ID":"2023-068P","EPOCH":"2026-06-26T16:18:57.826080","MEAN_MOTION":13.15547171,"ECCENTRICITY":0.000163,"INCLINATION":87.9001,"RA_OF_ASC_NODE":257.3311,"ARG_OF_PERICENTER":108.7786,"MEAN_ANOMALY":251.3521,"EPHEMERIS_TYPE":0,"CLASSIFICATION_TYPE":"U","NORAD_CAT_ID":56723,"ELEMENT_SET_NO":999,"REV_AT_EPOCH":15061,"BSTAR":0.00014753,"MEAN_MOTION_DOT":6.8e-7,"MEAN_MOTION_DDOT":0}]
